      2.10          N: GNSS NAV DATA                        RINEX VERSION / TYPE
fic2rin                                 04/28/2023 00:17:53 PGM / RUN BY / DATE
                                                            END OF HEADER
2  23  4 27  2  0  0.0 -.602077227086D-03  .375166564481D-11  .000000000000D+00
     .210000000000D+02  .231562500000D+02  .437411077070D-08  .311812112194D+01
     .101141631603D-05  .174081112491D-01  .327266752720D-05  .515953231430D+04
     .352800000000D+06  .271946191788D-06  .279588866680D+01  .173225998878D-06
     .967542133328D+00  .314906250000D+03 -.129279686750D+01 -.787425656582D-08
     .145363197818D-09  .100000000000D+01  .225900000000D+04  .000000000000D+00
     .240000000000D+01  .000000000000D+00 -.176951289177D-07  .210000000000D+02
     .345600000000D+06  .400000000000D+01
1  23  4 27  2  0  0.0  .189912039787D-03 -.306954461848D-11  .000000000000D+00
     .390000000000D+02  .631250000000D+01  .397123684653D-08 -.125797672691D+01
     .594183802605D-06  .127562882844D-01  .402703881264D-05  .515364542389D+04
     .352800000000D+06  .257045030594D-06  .289403448754D+01  .147148966789D-06
     .990057823562D+00  .314343750000D+03  .952843245952D+00 -.785961309872D-08
     .143934566881D-09  .100000000000D+01  .225900000000D+04  .000000000000D+00
     .240000000000D+01  .000000000000D+00  .465661287308D-08  .390000000000D+02
     .345600000000D+06  .400000000000D+01
5  23  4 27  2  0  0.0 -.124952290207D-03 -.147792889038D-11  .000000000000D+00
     .310000000000D+02 -.713437500000D+02  .457983362560D-08  .134899262872D+01
    -.367313623428D-05  .587819027714D-02  .637583434582D-05  .515365789604D+04
     .352800000000D+06 -.184401869774D-06 -.240499377856D+01  .298023223877D-07
     .965605785700D+00  .262906250000D+03  .113400132467D+01 -.813033866124D-08
     .500020827875D-10  .100000000000D+01  .225900000000D+04  .000000000000D+00
     .240000000000D+01  .000000000000D+00 -.111758708954D-07  .310000000000D+02
     .345600000000D+06  .400000000000D+01
3  23  4 27  2  0  0.0 -.319287180901D-03  .966338120634D-11  .000000000000D+00
     .560000000000D+02 -.715625000000D+02  .423767651624D-08 -.240613137730D+01
    -.365823507309D-05  .471962569281D-02  .574812293053D-05  .515368176460D+04
     .352800000000D+06  .113621354103D-06 -.235882424636D+01 -.335276126862D-07
     .978552944247D+00  .278375000000D+03  .100877480855D+01 -.784675542029D-08
     .121433629627D-09  .100000000000D+01  .225900000000D+04  .000000000000D+00
     .240000000000D+01  .000000000000D+00  .186264514923D-08  .560000000000D+02
     .345600000000D+06  .400000000000D+01
9  23  4 27  2  0  0.0 -.171504449099D-03  .807176547823D-11  .000000000000D+00
     .220000000000D+02 -.394375000000D+02  .458840541122D-08  .133428586938D+01
    -.225752592087D-05  .235000206158D-02  .795535743237D-05  .515362979889D+04
     .352800000000D+06  .130385160446D-07 -.133405461860D+01 -.651925802231D-07
     .955591317083D+00  .221093750000D+03  .195790872623D+01 -.795997442203D-08
     .785747015231D-10  .100000000000D+01  .225900000000D+04  .000000000000D+00
     .240000000000D+01  .000000000000D+00  .139698386192D-08  .220000000000D+02
     .345600000000D+06  .400000000000D+01
7  23  4 27  2  0  0.0  .192143023014D-03 -.886757334229D-11  .000000000000D+00
     .230000000000D+02  .884375000000D+01  .468769526132D-08 -.188005561710D+01
     .337138772011D-06  .171743449755D-01  .713765621185D-05  .515374862862D+04
     .352800000000D+06  .240281224251D-06 -.262219138983D+00 -.154599547386D-06
     .950670950118D+00  .233656250000D+03 -.220252990723D+01 -.777496671571D-08
     .500020827875D-10  .100000000000D+01  .225900000000D+04  .000000000000D+00
     .240000000000D+01  .000000000000D+00 -.111758708954D-07  .230000000000D+02
     .345600000000D+06  .400000000000D+01
31 23  4 27  2  0  0.0 -.214863568544D-03 -.795807864051D-12  .000000000000D+00
     .740000000000D+02  .784375000000D+01  .468876673453D-08 -.267903756295D+01
     .363215804100D-06  .105922637740D-01  .751204788685D-05  .515419854736D+04
     .352800000000D+06  .186264514923D-08 -.242372314568D+00 -.152736902237D-06
     .954771661638D+00  .231062500000D+03  .525110847237D+00 -.784889836669D-08
     .714315468392D-11  .100000000000D+01  .225900000000D+04  .000000000000D+00
     .240000000000D+01  .000000000000D+00 -.135041773319D-07  .740000000000D+02
     .345600000000D+06  .400000000000D+01
29 23  4 27  2  0  0.0 -.597178470343D-03 -.159161572810D-11  .000000000000D+00
     .530000000000D+02  .720312500000D+02  .396730811145D-08  .107748254383D+01
     .375136733055D-05  .246045051608D-02  .615417957306D-05  .515378409195D+04
     .352800000000D+06  .689178705215D-07  .190560446316D+01 -.223517417908D-07
     .976659486451D+00  .269437500000D+03  .236227926095D+01 -.786854204207D-08
     .632169189527D-10  .100000000000D+01  .225900000000D+04  .000000000000D+00
     .240000000000D+01  .000000000000D+00 -.102445483208D-07  .530000000000D+02
     .345600000000D+06  .400000000000D+01
32 23  4 27  2  0  0.0 -.461944378912D-03 -.966338120634D-11  .000000000000D+00
     .980000000000D+02 -.547187500000D+02  .451233081383D-08  .159187103394D+01
    -.284425914288D-05  .686583644710D-02  .871717929840D-05  .515373911476D+04
     .352800000000D+06 -.180676579475D-06 -.132101444187D+01  .186264514923D-07
     .959229965927D+00  .214937500000D+03 -.221121245915D+01 -.794318800852D-08
     .105361531588D-09  .100000000000D+01  .225900000000D+04  .000000000000D+00
     .340000000000D+01  .000000000000D+00  .465661287308D-09  .980000000000D+02
     .345600000000D+06  .400000000000D+01
24 23  4 27  2  0  0.0 -.167072284967D-03 -.143245415529D-10  .000000000000D+00
     .960000000000D+02  .540625000000D+01  .527093384127D-08 -.965492604117D+00
     .333413481712D-06  .138163981028D-01  .721774995327D-05  .515364983749D+04
     .352800000000D+06  .212341547012D-06 -.352337464475D+00  .312924385071D-06
     .934194797215D+00  .225281250000D+03  .890582274658D+00 -.837034865862D-08
    -.122862260563D-09  .100000000000D+01  .225900000000D+04  .000000000000D+00
     .240000000000D+01  .000000000000D+00  .232830643654D-08  .960000000000D+02
     .345600000000D+06  .400000000000D+01
16 23  4 27  2  0  0.0 -.505800358951D-03  .295585778076D-11  .000000000000D+00
     .122000000000D+03  .396562500000D+02  .435768151493D-08  .181670184015D+01
     .194646418095D-05  .133556707297D-01  .807270407677D-05  .515358677673D+04
     .352800000000D+06 -.270083546638D-06  .870350338522D+00 -.931322574615D-07
     .965526893454D+00  .229656250000D+03  .787105429758D+00 -.793175896103D-08
    -.302869758598D-09  .100000000000D+01  .225900000000D+04  .000000000000D+00
     .240000000000D+01  .000000000000D+00 -.102445483208D-07  .122000000000D+03
     .345600000000D+06  .400000000000D+01
30 23  4 27  2  0  0.0 -.520343426615D-03  .193267624127D-11  .000000000000D+00
     .740000000000D+02  .684375000000D+01  .509449792057D-08 -.201315217313D+01
     .216066837311D-06  .641914585140D-02  .730529427528D-05  .515360131264D+04
     .352800000000D+06  .931322574615D-08 -.255649353827D+00 -.689178705215D-07
     .935799523258D+00  .224656250000D+03 -.260172786791D+01 -.813676750046D-08
     .785747015231D-11  .100000000000D+01  .225900000000D+04  .000000000000D+00
     .240000000000D+01  .000000000000D+00  .372529029846D-08  .740000000000D+02
     .345600000000D+06  .400000000000D+01
27 23  4 27  2  0  0.0  .500488094985D-04 -.829913915368D-11  .000000000000D+00
     .710000000000D+02  .680625000000D+02  .421088968617D-08  .958511769703D+00
     .347383320332D-05  .115733529674D-01  .723451375961D-05  .515367092133D+04
     .352800000000D+06 -.121071934700D-06  .182607987210D+01  .856816768646D-07
     .967735961196D+00  .243062500000D+03  .730022294622D+00 -.808462247126D-08
    -.130719730716D-09  .100000000000D+01  .225900000000D+04  .000000000000D+00
     .340000000000D+01  .000000000000D+00  .186264514923D-08  .710000000000D+02
     .345600000000D+06  .400000000000D+01
28 23  4 27  2  0  0.0  .709751620889D-04  .511590769747D-11  .000000000000D+00
     .151000000000D+03  .665625000000D+01  .453161733148D-08  .282899324628D+01
     .411644577980D-06  .778687302954D-03  .762939453125D-05  .515366210175D+04
     .352800000000D+06 -.260770320892D-07 -.299904735253D+00  .391155481339D-07
     .961806841996D+00  .234125000000D+03  .171646587374D+01 -.784211236974D-08
    -.389301930274D-10  .100000000000D+01  .225900000000D+04  .000000000000D+00
     .340000000000D+01  .000000000000D+00 -.139698386192D-08  .151000000000D+03
     .345600000000D+06  .400000000000D+01
20 23  4 27  2  0  0.0  .436791218817D-03 -.216004991671D-11  .000000000000D+00
     .810000000000D+02 -.625312500000D+02  .499663670140D-08 -.447637972455D+00
    -.319629907608D-05  .420698267408D-02  .564567744732D-05  .515380447006D+04
     .352800000000D+06  .204890966415D-07 -.252685349551D+01  .130385160446D-07
     .948169826873D+00  .263906250000D+03 -.288161249902D+01 -.830320300459D-08
     .764317551180D-10  .100000000000D+01  .225900000000D+04  .000000000000D+00
     .240000000000D+01  .000000000000D+00 -.838190317154D-08  .810000000000D+02
     .345600000000D+06  .400000000000D+01
19 23  4 27  2  0  0.0  .309061259031D-03  .511590769747D-11  .000000000000D+00
     .107000000000D+03  .599062500000D+02  .406731227703D-08  .306799294073D+01
     .311620533466D-05  .933773000725D-02  .560656189919D-05  .515362322426D+04
     .352800000000D+06  .000000000000D+00  .193617075251D+01  .173225998878D-06
     .973468851879D+00  .271343750000D+03  .227955477944D+01 -.779639617977D-08
     .621454457501D-10  .100000000000D+01  .225900000000D+04  .000000000000D+00
     .340000000000D+01  .000000000000D+00 -.153668224812D-07  .107000000000D+03
     .345600000000D+06  .400000000000D+01
